      2.10          N: GNSS NAV DATA                        RINEX VERSION / TYPE
fic2rin                                 04/19/2021 00:17:16 PGM / RUN BY / DATE
                                                            END OF HEADER
 5 21  4 18 14  0  0.0-3.943452611566e-05-1.023181539495e-12 0.000000000000e+00
    6.200000000000e+01-4.437500000000e+01 4.413398121461e-09 3.227455619567e-01
   -2.210959792137e-06 6.035641417839e-03 8.797273039818e-06 5.153859306335e+03
    5.040000000000e+04-1.080334186554e-07-1.808048951810e+00 1.247972249985e-07
    9.555650591660e-01 2.070312500000e+02 8.816703971567e-01-7.998904615055e-09
    3.582292073987e-10 1.000000000000e+00 2.154000000000e+03 0.000000000000e+00
    2.400000000000e+00 0.000000000000e+00-1.117587089539e-08 6.200000000000e+01
    4.320000000000e+04 4.000000000000e+00
27 21  4 18 14  0  0.0-1.149303279817e-04-6.821210263297e-12 0.000000000000e+00
    1.000000000000e+01 2.328125000000e+01 4.338752155014e-09-2.633549412647e-01
    1.205131411552e-06 9.373545879498e-03 3.563240170479e-06 5.153679729462e+03
    5.040000000000e+04-1.862645149231e-09 2.416834972500e+00 1.136213541031e-07
    9.762331555494e-01 3.149687500000e+02 6.077741129399e-01-8.283559329210e-09
   -1.460775132862e-10 1.000000000000e+00 2.154000000000e+03 0.000000000000e+00
    2.400000000000e+00 0.000000000000e+00 1.862645149231e-09 1.000000000000e+01
    4.320000000000e+04 4.000000000000e+00
16 21  4 18 14  0  0.0-3.116205334663e-04-5.911715561524e-12 0.000000000000e+00
    2.200000000000e+01 8.162500000000e+01 4.271963658719e-09 6.717832479316e-01
    4.574656486511e-06 1.224921375979e-02 7.379800081253e-06 5.153684577942e+03
    5.040000000000e+04-8.009374141693e-08 1.459850498050e+00 1.583248376846e-07
    9.739609555775e-01 2.421875000000e+02 6.740839952870e-01-8.058192798932e-09
   -2.396528396456e-10 1.000000000000e+00 2.154000000000e+03 0.000000000000e+00
    2.400000000000e+00 0.000000000000e+00-1.024454832077e-08 2.200000000000e+01
    4.320000000000e+04 4.000000000000e+00
 8 21  4 18 14  0  0.0-1.795031130314e-05-1.364242052659e-12 0.000000000000e+00
    4.300000000000e+01 2.456250000000e+01 4.434470427779e-09-2.070158565042e-01
    1.152977347374e-06 6.334670004435e-03 3.688037395477e-06 5.153583717346e+03
    5.040000000000e+04 9.499490261078e-08 2.399905243309e+00 2.235174179077e-08
    9.676576233955e-01 3.114062500000e+02 2.969197196696e-02-8.250343659930e-09
   -1.500062483624e-10 1.000000000000e+00 2.154000000000e+03 0.000000000000e+00
    2.400000000000e+00 0.000000000000e+00 5.122274160385e-09 4.300000000000e+01
    4.320000000000e+04 4.000000000000e+00
 6 21  4 18 14  0  0.0 8.206814527512e-06 2.955857780762e-12 0.000000000000e+00
    6.900000000000e+01-7.196875000000e+01 3.879447308838e-09-2.185599828400e+00
   -3.745779395103e-06 2.292064367794e-03 6.491318345070e-06 5.153748321533e+03
    5.040000000000e+04 7.450580596924e-09-2.817775660672e+00 6.146728992462e-08
    9.836589584411e-01 2.678750000000e+02-9.911794691862e-01-7.825683113970e-09
   -6.321691895271e-11 1.000000000000e+00 2.154000000000e+03 0.000000000000e+00
    2.400000000000e+00 0.000000000000e+00 3.725290298462e-09 6.900000000000e+01
    4.320000000000e+04 4.000000000000e+00
 7 21  4 18 14  0  0.0 1.257634721696e-04 1.136868377216e-11 0.000000000000e+00
    3.700000000000e+01 1.968750000000e+01 4.767698593784e-09-3.009719464268e+00
    8.437782526016e-07 1.478028413840e-02 8.892267942429e-06 5.153588804245e+03
    5.040000000000e+04-3.725290298462e-09 3.308396697145e-01-2.868473529816e-07
    9.521771720355e-01 2.044062500000e+02-2.340629183732e+00-7.819254274755e-09
   -2.332240004300e-10 1.000000000000e+00 2.154000000000e+03 0.000000000000e+00
    2.400000000000e+00 0.000000000000e+00-1.117587089539e-08 3.700000000000e+01
    4.320000000000e+04 4.000000000000e+00
 4 21  4 18 14  0  0.0-1.924238167703e-04-1.932676241267e-12 0.000000000000e+00
    3.600000000000e+01-6.531250000000e+00 4.707338936704e-09-7.928886126390e-01
   -3.334134817123e-07 1.180695602670e-03 6.964430212975e-06 5.153752590179e+03
    5.040000000000e+04-2.048909664154e-08-6.909759138975e-01 1.862645149231e-08
    9.604382718920e-01 2.416250000000e+02-2.942066748935e+00-8.024977129652e-09
    2.092944322389e-10 1.000000000000e+00 2.154000000000e+03 0.000000000000e+00
    2.400000000000e+00 0.000000000000e+00-4.190951585770e-09 5.480000000000e+02
    4.320000000000e+04 4.000000000000e+00
12 21  4 18 14  0  0.0-2.945121377707e-05-5.115907697473e-12 0.000000000000e+00
    3.700000000000e+01 9.531250000000e+01 4.090884687482e-09 2.517421743737e+00
    4.680827260017e-06 8.485365658998e-03 6.809830665588e-06 5.153764602661e+03
    5.040000000000e+04-1.862645149231e-09 1.441078059691e+00-1.434236764908e-07
    9.738742352567e-01 2.497187500000e+02 1.202988074996e+00-7.733893576282e-09
   -1.682212928064e-10 1.000000000000e+00 2.154000000000e+03 0.000000000000e+00
    2.400000000000e+00 0.000000000000e+00-1.257285475731e-08 3.700000000000e+01
    4.320000000000e+04 4.000000000000e+00
 9 21  4 18 14  0  0.0-3.397753462195e-04-2.728484105319e-12 0.000000000000e+00
    6.900000000000e+01-6.343750000000e+00 4.894489589423e-09 2.279648785094e-01
   -5.196779966354e-07 1.887909369543e-03 6.902962923050e-06 5.153796939850e+03
    5.040000000000e+04-9.313225746155e-09-7.414974620713e-01 3.539025783539e-08
    9.532477296342e-01 2.391250000000e+02 1.833608390864e+00-8.172126116141e-09
    2.028655930234e-10 1.000000000000e+00 2.154000000000e+03 0.000000000000e+00
    2.400000000000e+00 0.000000000000e+00 1.396983861923e-09 6.900000000000e+01
    4.320000000000e+04 4.000000000000e+00
30 21  4 18 14  0  0.0-4.145256243646e-04-5.229594535194e-12 0.000000000000e+00
    2.900000000000e+01 2.465625000000e+01 5.163429363273e-09 3.130133785973e+00
    1.339241862297e-06 5.101036978886e-03 8.678063750267e-06 5.153720193863e+03
    5.040000000000e+04-8.568167686462e-08 3.485857203602e-01-5.401670932770e-08
    9.373916272439e-01 2.032812500000e+02-2.809177688818e+00-8.123552664290e-09
   -2.310810540249e-10 1.000000000000e+00 2.154000000000e+03 0.000000000000e+00
    2.400000000000e+00 0.000000000000e+00 3.725290298462e-09 2.900000000000e+01
    4.320000000000e+04 4.000000000000e+00
26 21  4 18 14  0  0.0 7.383292540908e-05 5.115907697473e-12 0.000000000000e+00
    2.500000000000e+01 7.862500000000e+01 4.951991984629e-09 1.516974450063e+00
    4.353001713753e-06 5.789839313366e-03 8.028000593185e-06 5.153795604706e+03
    5.040000000000e+04-5.587935447693e-09 1.326669405837e+00 1.210719347000e-07
    9.422078607736e-01 2.142812500000e+02 3.053347346001e-01-8.273201754918e-09
   -2.292952653539e-10 1.000000000000e+00 2.154000000000e+03 0.000000000000e+00
    2.400000000000e+00 0.000000000000e+00 6.984919309616e-09 2.500000000000e+01
    4.320000000000e+04 4.000000000000e+00
29 21  4 18 14  0  0.0-3.321724943817e-04-6.593836587854e-12 0.000000000000e+00
    7.000000000000e+01 2.143750000000e+01 4.033739450011e-09-7.998656888165e-02
    1.046806573868e-06 1.734691439196e-03 3.485009074211e-06 5.153654386520e+03
    5.040000000000e+04-4.470348358154e-08 2.489680769060e+00-6.705522537231e-08
    9.842854852927e-01 3.255312500000e+02 2.116518607210e+00-8.034620388475e-09
   -1.164334213479e-10 1.000000000000e+00 2.154000000000e+03 0.000000000000e+00
    2.400000000000e+00 0.000000000000e+00-1.024454832077e-08 7.000000000000e+01
    4.320000000000e+04 4.000000000000e+00
15 21  4 18 14  0  0.0-1.553283073008e-04 2.614797267597e-12 0.000000000000e+00
    6.000000000000e+01-7.750000000000e+00 5.453798601174e-09-1.167300985743e+00
   -8.568167686462e-08 1.309691043571e-02 6.655231118202e-06 5.153591289520e+03
    5.040000000000e+04 2.440065145493e-07-8.395207839018e-01 2.421438694000e-07
    9.288306555136e-01 2.294062500000e+02 9.762505862184e-01-8.407493062976e-09
    2.321525272275e-10 1.000000000000e+00 2.154000000000e+03 0.000000000000e+00
    2.400000000000e+00 0.000000000000e+00-1.071020960808e-08 6.000000000000e+01
    4.320000000000e+04 4.000000000000e+00
31 21  4 18 14  0  0.0-1.123091205955e-04-2.160049916711e-12 0.000000000000e+00
    9.700000000000e+01 2.278125000000e+01 4.765555647378e-09 2.712673052967e+00
    1.169741153717e-06 9.935895446688e-03 8.691102266312e-06 5.153768106461e+03
    5.040000000000e+04-1.899898052216e-07 3.477287824481e-01-8.940696716309e-08
    9.564958802927e-01 2.109375000000e+02 2.583999558068e-01-7.823540167565e-09
   -2.460816788611e-10 1.000000000000e+00 2.154000000000e+03 0.000000000000e+00
    2.400000000000e+00 0.000000000000e+00-1.303851604462e-08 9.700000000000e+01
    4.320000000000e+04 4.000000000000e+00
22 21  4 18 14  0  0.0-6.350274197757e-04 8.867573342286e-12 0.000000000000e+00
    5.500000000000e+01-4.603125000000e+01 4.913418949336e-09-1.231825704268e+00
   -2.356246113777e-06 7.065885118209e-03 8.316710591316e-06 5.153559185028e+03
    5.040000000000e+04-1.005828380585e-07-1.869845875249e+00 6.146728992462e-08
    9.341455232078e-01 2.080312500000e+02-9.925712660402e-01-8.234628719625e-09
    4.118028675281e-10 1.000000000000e+00 2.154000000000e+03 0.000000000000e+00
    2.400000000000e+00 0.000000000000e+00-1.816079020500e-08 5.500000000000e+01
    4.320000000000e+04 4.000000000000e+00
19 21  4 18 14  0  0.0-1.131882891059e-05 5.002220859751e-12 0.000000000000e+00
    5.500000000000e+01 1.937500000000e+00 4.108028258723e-09 2.245580338623e+00
    9.499490261078e-08 9.192167897709e-03 2.849847078323e-06 5.153631067276e+03
    5.040000000000e+04 1.639127731323e-07 2.522492830763e+00-1.862645149231e-08
    9.809588754118e-01 3.314375000000e+02 1.812365774366e+00-7.922830017672e-09
   -2.225092684042e-10 1.000000000000e+00 2.154000000000e+03 0.000000000000e+00
    2.400000000000e+00 0.000000000000e+00-1.583248376846e-08 5.500000000000e+01
    4.320000000000e+04 4.000000000000e+00
